[{"OBJECT_NAME":"LYNK TOWER 4","OBJECT_ID":"2023-001AB","EPOCH":"2026-03-09T16:15:30.644928","MEAN_MOTION":15.31819885,"ECCENTRICITY":0.00103213,"INCLINATION":97.3324,"RA_OF_ASC_NODE":128.594,"ARG_OF_PERICENTER":112.3386,"MEAN_ANOMALY":247.895,"EPHEMERIS_TYPE":0,"CLASSIFICATION_TYPE":"U","NORAD_CAT_ID":55034,"ELEMENT_SET_NO":999,"REV_AT_EPOCH":17658,"BSTAR":0.00030013829,"MEAN_MOTION_DOT":9.16e-5,"MEAN_MOTION_DDOT":0},{"OBJECT_NAME":"STARLINK-35904","OBJECT_ID":"2025-271L","EPOCH":"2026-03-09T11:33:48.525696","MEAN_MOTION":15.30193865,"ECCENTRICITY":9.943e-5,"INCLINATION":53.1575,"RA_OF_ASC_NODE":140.9863,"ARG_OF_PERICENTER":76.5963,"MEAN_ANOMALY":283.5148,"EPHEMERIS_TYPE":0,"CLASSIFICATION_TYPE":"U","NORAD_CAT_ID":66627,"ELEMENT_SET_NO":999,"REV_AT_EPOCH":1749,"BSTAR":0.001243665,"MEAN_MOTION_DOT":0.00036649,"MEAN_MOTION_DDOT":0}]
