LYNK TOWER 4            
1 55034U 23001AB  26068.67743801  .00009160  00000+0  30014-3 0  9997
2 55034  97.3324 128.5940 0010321 112.3386 247.8950 15.31819885176588
STARLINK-35904          
1 66627U 25271L   26068.48181164  .00036649  00000+0  12437-2 0  9995
2 66627  53.1575 140.9863 0000994  76.5963 283.5148 15.30193865 17497
